start=new Date('2023-03-10T00:00:00.000Z').valueOf();
sats=[{"TLE_LINE1":"1 48375U 21038Y   23068.76228743  .00010718  00000-0  73640-3 0  9999","SEMIMAJOR_AXIS":"6925.210","ECCENTRICITY":"0.00008060","SITE":"AFETR","GP_ID":"227767961","TLE_LINE2":"2 48375  53.0542 231.4247 0000806  84.3033 275.8048 15.06445338101988","REF_FRAME":"TEME","OBJECT_TYPE":"PAYLOAD","APOAPSIS":"547.633","OBJECT_NAME":"STARLINK-2603","FILE":"3855951","MEAN_MOTION":"15.06445338","EPHEMERIS_TYPE":"0","BSTAR":"0.00073640000000","EPOCH":"2023-03-09T18:17:41.633952","PERIAPSIS":"546.516","TIME_SYSTEM":"UTC","CLASSIFICATION_TYPE":"U","INCLINATION":"53.0542","MEAN_ELEMENT_THEORY":"SGP4","PERIOD":"95.589","COUNTRY_CODE":"US","LAUNCH_DATE":"2021-05-04","REV_AT_EPOCH":"10198","MEAN_MOTION_DOT":"0.00010718","RA_OF_ASC_NODE":"231.4247","RCS_SIZE":"LARGE","NORAD_CAT_ID":"48375","MEAN_MOTION_DDOT":"0.0000000000000","ELEMENT_SET_NO":"999","DECAY_DATE":null,"ARG_OF_PERICENTER":"84.3033","CENTER_NAME":"EARTH","MEAN_ANOMALY":"275.8048","OBJECT_ID":"2021-038Y"},{"EPHEMERIS_TYPE":"0","MEAN_MOTION":"15.06405874","FILE":"3855951","APOAPSIS":"547.957","OBJECT_NAME":"STARLINK-2610","TIME_SYSTEM":"UTC","CLASSIFICATION_TYPE":"U","INCLINATION":"53.0535","BSTAR":"0.00036227000000","PERIAPSIS":"546.434","EPOCH":"2023-03-09T21:23:30.532704","TLE_LINE1":"1 48376U 21038Z   23068.89132561  .00005120  00000-0  36227-3 0  9997","SEMIMAJOR_AXIS":"6925.331","SITE":"AFETR","ECCENTRICITY":"0.00011000","OBJECT_TYPE":"PAYLOAD","TLE_LINE2":"2 48376  53.0535 230.8394 0001100  81.3771 278.7343 15.06405874102006","GP_ID":"227766711","REF_FRAME":"TEME","ELEMENT_SET_NO":"999","NORAD_CAT_ID":"48376","MEAN_MOTION_DDOT":"0.0000000000000","DECAY_DATE":null,"OBJECT_ID":"2021-038Z","ARG_OF_PERICENTER":"81.3771","CENTER_NAME":"EARTH","MEAN_ANOMALY":"278.7343","COUNTRY_CODE":"US","LAUNCH_DATE":"2021-05-04","REV_AT_EPOCH":"10200","PERIOD":"95.592","MEAN_ELEMENT_THEORY":"SGP4","MEAN_MOTION_DOT":"0.00005120","RA_OF_ASC_NODE":"230.8394","RCS_SIZE":"LARGE"},{"ARG_OF_PERICENTER":"82.7204","CENTER_NAME":"EARTH","MEAN_ANOMALY":"277.3967","OBJECT_ID":"2021-038AA","NORAD_CAT_ID":"48377","MEAN_MOTION_DDOT":"0.0000000000000","ELEMENT_SET_NO":"999","DECAY_DATE":null,"RA_OF_ASC_NODE":"231.4560","MEAN_MOTION_DOT":"0.00006797","RCS_SIZE":"LARGE","MEAN_ELEMENT_THEORY":"SGP4","PERIOD":"95.592","COUNTRY_CODE":"US","LAUNCH_DATE":"2021-05-04","REV_AT_EPOCH":"10198","BSTAR":"0.00047467000000","EPOCH":"2023-03-09T18:07:07.413888","PERIAPSIS":"546.081","CLASSIFICATION_TYPE":"U","TIME_SYSTEM":"UTC","INCLINATION":"53.0529","APOAPSIS":"548.295","OBJECT_NAME":"STARLINK-2499","MEAN_MOTION":"15.06408296","FILE":"3855951","EPHEMERIS_TYPE":"0","GP_ID":"227766960","TLE_LINE2":"2 48377  53.0529 231.4560 0001599  82.7204 277.3967 15.06408296101984","REF_FRAME":"TEME","OBJECT_TYPE":"PAYLOAD","TLE_LINE1":"1 48377U 21038AA  23068.75494692  .00006797  00000-0  47467-3 0  9998","SEMIMAJOR_AXIS":"6925.323","SITE":"AFETR","ECCENTRICITY":"0.00015990"},{"REV_AT_EPOCH":"10198","LAUNCH_DATE":"2021-05-04","COUNTRY_CODE":"US","MEAN_ELEMENT_THEORY":"SGP4","PERIOD":"95.591","RCS_SIZE":"LARGE","RA_OF_ASC_NODE":"231.4793","MEAN_MOTION_DOT":"0.00017914","DECAY_DATE":null,"NORAD_CAT_ID":"48378","MEAN_MOTION_DDOT":"0.0000000000000","ELEMENT_SET_NO":"999","OBJECT_ID":"2021-038AB","MEAN_ANOMALY":"262.4930","ARG_OF_PERICENTER":"97.6213","CENTER_NAME":"EARTH","ECCENTRICITY":"0.00013550","SITE":"AFETR","TLE_LINE1":"1 48378U 21038AB  23068.75125904  .00017914  00000-0  12178-2 0  9999","SEMIMAJOR_AXIS":"6925.283","OBJECT_TYPE":"PAYLOAD","REF_FRAME":"TEME","TLE_LINE2":"2 48378  53.0547 231.4793 0001355  97.6213 262.4930 15.06421392101985","GP_ID":"227767707","FILE":"3855951","MEAN_MOTION":"15.06421392","EPHEMERIS_TYPE":"0","OBJECT_NAME":"STARLINK-2526","APOAPSIS":"548.086","INCLINATION":"53.0547","CLASSIFICATION_TYPE":"U","TIME_SYSTEM":"UTC","EPOCH":"2023-03-09T18:01:48.781056","PERIAPSIS":"546.210","BSTAR":"0.00121780000000"},{"DECAY_DATE":null,"NORAD_CAT_ID":"48379","MEAN_MOTION_DDOT":"0.0000000000000","ELEMENT_SET_NO":"999","MEAN_ANOMALY":"272.9528","ARG_OF_PERICENTER":"87.1696","CENTER_NAME":"EARTH","OBJECT_ID":"2021-038AC","MEAN_ELEMENT_THEORY":"SGP4","PERIOD":"95.591","LAUNCH_DATE":"2021-05-04","REV_AT_EPOCH":"10198","COUNTRY_CODE":"US","RCS_SIZE":"LARGE","RA_OF_ASC_NODE":"231.4924","MEAN_MOTION_DOT":"0.00008619","OBJECT_NAME":"STARLINK-2612","APOAPSIS":"548.587","FILE":"3855951","MEAN_MOTION":"15.06416798","EPHEMERIS_TYPE":"0","PERIAPSIS":"545.738","EPOCH":"2023-03-09T17:56:30.373728","BSTAR":"0.00059651000000","INCLINATION":"53.0517","CLASSIFICATION_TYPE":"U","TIME_SYSTEM":"UTC","ECCENTRICITY":"0.00020570","SITE":"AFETR","TLE_LINE1":"1 48379U 21038AC  23068.74757377  .00008619  00000-0  59651-3 0  9994","SEMIMAJOR_AXIS":"6925.297","REF_FRAME":"TEME","TLE_LINE2":"2 48379  53.0517 231.4924 0002057  87.1696 272.9528 15.06416798101981","GP_ID":"227767461","OBJECT_TYPE":"PAYLOAD"},{"PERIOD":"95.591","MEAN_ELEMENT_THEORY":"SGP4","REV_AT_EPOCH":"10198","LAUNCH_DATE":"2021-05-04","COUNTRY_CODE":"US","RCS_SIZE":"LARGE","RA_OF_ASC_NODE":"231.3814","MEAN_MOTION_DOT":"0.00005846","DECAY_DATE":null,"ELEMENT_SET_NO":"999","MEAN_MOTION_DDOT":"0.0000000000000","NORAD_CAT_ID":"48380","MEAN_ANOMALY":"287.8650","CENTER_NAME":"EARTH","ARG_OF_PERICENTER":"72.2452","OBJECT_ID":"2021-038AD","ECCENTRICITY":"0.00010380","SITE":"AFETR","SEMIMAJOR_AXIS":"6925.308","TLE_LINE1":"1 48380U 21038AD  23068.77242904  .00005846  00000-0  41086-3 0  9996","REF_FRAME":"TEME","GP_ID":"227766211","TLE_LINE2":"2 48380  53.0538 231.3814 0001038  72.2452 287.8650 15.06413389101980","OBJECT_TYPE":"PAYLOAD","OBJECT_NAME":"STARLINK-2614","APOAPSIS":"547.891","EPHEMERIS_TYPE":"0","FILE":"3855951","MEAN_MOTION":"15.06413389","EPOCH":"2023-03-09T18:32:17.869056","PERIAPSIS":"546.454","BSTAR":"0.00041086000000","INCLINATION":"53.0538","TIME_SYSTEM":"UTC","CLASSIFICATION_TYPE":"U"},{"CLASSIFICATION_TYPE":"U","TIME_SYSTEM":"UTC","INCLINATION":"53.0519","BSTAR":"0.00078566000000","PERIAPSIS":"546.306","EPOCH":"2023-03-09T17:51:11.925792","MEAN_MOTION":"15.06416981","FILE":"3855951","EPHEMERIS_TYPE":"0","APOAPSIS":"548.017","OBJECT_NAME":"STARLINK-2630","OBJECT_TYPE":"PAYLOAD","GP_ID":"227766460","TLE_LINE2":"2 48381  53.0519 231.5085 0001236  86.7557 273.3574 15.06416981101984","REF_FRAME":"TEME","TLE_LINE1":"1 48381U 21038AE  23068.74388803  .00011446  00000-0  78566-3 0  9999","SEMIMAJOR_AXIS":"6925.297","ECCENTRICITY":"0.00012360","SITE":"AFETR","OBJECT_ID":"2021-038AE","CENTER_NAME":"EARTH","ARG_OF_PERICENTER":"86.7557","MEAN_ANOMALY":"273.3574","NORAD_CAT_ID":"48381","MEAN_MOTION_DDOT":"0.0000000000000","ELEMENT_SET_NO":"999","DECAY_DATE":null,"MEAN_MOTION_DOT":"0.00011446","RA_OF_ASC_NODE":"231.5085","RCS_SIZE":"LARGE","COUNTRY_CODE":"US","LAUNCH_DATE":"2021-05-04","REV_AT_EPOCH":"10198","MEAN_ELEMENT_THEORY":"SGP4","PERIOD":"95.591"},{"MEAN_ANOMALY":"266.6376","CENTER_NAME":"EARTH","ARG_OF_PERICENTER":"93.4841","OBJECT_ID":"2021-038AF","DECAY_DATE":null,"ELEMENT_SET_NO":"999","MEAN_MOTION_DDOT":"0.0000000000000","NORAD_CAT_ID":"48382","RCS_SIZE":"LARGE","RA_OF_ASC_NODE":"230.9254","MEAN_MOTION_DOT":"0.00012103","PERIOD":"95.591","MEAN_ELEMENT_THEORY":"SGP4","REV_AT_EPOCH":"10200","LAUNCH_DATE":"2021-05-04","COUNTRY_CODE":"US","EPOCH":"2023-03-09T20:56:58.410528","PERIAPSIS":"545.800","BSTAR":"0.00082974000000","INCLINATION":"53.0529","TIME_SYSTEM":"UTC","CLASSIFICATION_TYPE":"U","OBJECT_NAME":"STARLINK-2585","APOAPSIS":"548.556","EPHEMERIS_TYPE":"0","FILE":"3855951","MEAN_MOTION":"15.06411620","REF_FRAME":"TEME","TLE_LINE2":"2 48382  53.0529 230.9254 0001990  93.4841 266.6376 15.06411620102009","GP_ID":"227767207","OBJECT_TYPE":"PAYLOAD","ECCENTRICITY":"0.00019900","SITE":"AFETR","SEMIMAJOR_AXIS":"6925.313","TLE_LINE1":"1 48382U 21038AF  23068.87289827  .00012103  00000-0  82974-3 0  9999"},{"ARG_OF_PERICENTER":"83.9484","CENTER_NAME":"EARTH","MEAN_ANOMALY":"276.1643","OBJECT_ID":"2021-038AG","MEAN_MOTION_DDOT":"0.0000000000000","NORAD_CAT_ID":"48383","ELEMENT_SET_NO":"999","DECAY_DATE":null,"RA_OF_ASC_NODE":"230.9478","MEAN_MOTION_DOT":"0.00003947","RCS_SIZE":"LARGE","MEAN_ELEMENT_THEORY":"SGP4","PERIOD":"95.591","COUNTRY_CODE":"US","REV_AT_EPOCH":"10322","LAUNCH_DATE":"2021-05-04","BSTAR":"0.00028363000000","EPOCH":"2023-03-09T20:51:39.284352","PERIAPSIS":"546.330","TIME_SYSTEM":"UTC","CLASSIFICATION_TYPE":"U","INCLINATION":"53.0523","APOAPSIS":"548.006","OBJECT_NAME":"STARLINK-2599","FILE":"3855951","MEAN_MOTION":"15.06414778","EPHEMERIS_TYPE":"0","TLE_LINE2":"2 48383  53.0523 230.9478 0001210  83.9484 276.1643 15.06414778103229","GP_ID":"227767962","REF_FRAME":"TEME","OBJECT_TYPE":"PAYLOAD","TLE_LINE1":"1 48383U 21038AG  23068.86920468  .00003947  00000-0  28363-3 0  9990","SEMIMAJOR_AXIS":"6925.303","ECCENTRICITY":"0.00012100","SITE":"AFETR"},{"FILE":"3855951","MEAN_MOTION":"15.06416894","EPHEMERIS_TYPE":"0","OBJECT_NAME":"STARLINK-2601","APOAPSIS":"547.947","INCLINATION":"53.0507","CLASSIFICATION_TYPE":"U","TIME_SYSTEM":"UTC","PERIAPSIS":"546.376","EPOCH":"2023-03-09T20:46:20.788896","BSTAR":"0.00037395000000","SITE":"AFETR","ECCENTRICITY":"0.00011340","TLE_LINE1":"1 48384U 21038AH  23068.86551839  .00005295  00000-0  37395-3 0  9996","SEMIMAJOR_AXIS":"6925.297","OBJECT_TYPE":"PAYLOAD","REF_FRAME":"TEME","GP_ID":"227766712","TLE_LINE2":"2 48384  53.0507 230.9633 0001134  75.2516 284.8598 15.06416894103226","DECAY_DATE":null,"MEAN_MOTION_DDOT":"0.0000000000000","NORAD_CAT_ID":"48384","ELEMENT_SET_NO":"999","OBJECT_ID":"2021-038AH","MEAN_ANOMALY":"284.8598","ARG_OF_PERICENTER":"75.2516","CENTER_NAME":"EARTH","LAUNCH_DATE":"2021-05-04","REV_AT_EPOCH":"10322","COUNTRY_CODE":"US","MEAN_ELEMENT_THEORY":"SGP4","PERIOD":"95.591","RCS_SIZE":"LARGE","MEAN_MOTION_DOT":"0.00005295","RA_OF_ASC_NODE":"230.9633"}];
